{"type": "FeatureCollection", "features": [ {"type": "Feature", "properties": {"norad_id": 34571, "name": "COSMOS 2251 DEB", "group": "cosmos-2251-debris", "lat": -65.30028802680543, "lon": 31.692909919310363, "alt_km": 702.3811390574974, "timestamp": "2025-12-17T15:50:10.176466+00:00", "meta": {"OBJECT_NAME": "COSMOS 2251 DEB", "OBJECT_ID": "1993-036VH", "EPOCH": "2025-12-16T13:49:32.553408", "MEAN_MOTION": 14.48871631, "ECCENTRICITY": 0.00656278, "INCLINATION": 74.0389, "RA_OF_ASC_NODE": 175.2429, "ARG_OF_PERICENTER": 209.3038, "MEAN_ANOMALY": 150.4436, "EPHEMERIS_TYPE": 0, "CLASSIFICATION_TYPE": "U", "NORAD_CAT_ID": 34571, "ELEMENT_SET_NO": 999, "REV_AT_EPOCH": 87349, "BSTAR": 0.0017589053, "MEAN_MOTION_DOT": 6.815e-05, "MEAN_MOTION_DDOT": 0}, "tle": {"line1": "1 34571U 93036VH  25350.57607122  .00006815  00000+0  17589-2 0  9997", "line2": "2 34571  74.0389 175.2429 0065627 209.3038 150.4436 14.48871631873491"}}, "geometry": {"type": "Point", "coordinates": [31.692909919310363, -65.30028802680543]}}, {"type": "Feature", "properties": {"norad_id": 34572, "name": "COSMOS 2251 DEB", "group": "cosmos-2251-debris", "lat": 43.79950870447812, "lon": -89.71005055493073, "alt_km": 689.8937379267572, "timestamp": "2025-12-17T15:50:10.176477+00:00", "meta": {"OBJECT_NAME": "COSMOS 2251 DEB", "OBJECT_ID": "1993-036VJ", "EPOCH": "2025-12-16T07:54:28.545984", "MEAN_MOTION": 14.50089794, "ECCENTRICITY": 0.00624031, "INCLINATION": 74.0096, "RA_OF_ASC_NODE": 108.7525, "ARG_OF_PERICENTER": 181.9081, "MEAN_ANOMALY": 210.4216, "EPHEMERIS_TYPE": 0, "CLASSIFICATION_TYPE": "U", "NORAD_CAT_ID": 34572, "ELEMENT_SET_NO": 999, "REV_AT_EPOCH": 87430, "BSTAR": 0.001902929, "MEAN_MOTION_DOT": 7.55e-05, "MEAN_MOTION_DDOT": 0}, "tle": {"line1": "1 34572U 93036VJ  25350.32949706  .00007550  00000+0  19029-2 0  9996", "line2": "2 34572  74.0096 108.7525 0062403 181.9081 210.4216 14.50089794874305"}}, "geometry": {"type": "Point", "coordinates": [-89.71005055493073, 43.79950870447812]}}, {"type": "Feature", "properties": {"norad_id": 34574, "name": "COSMOS 2251 DEB", "group": "cosmos-2251-debris", "lat": 24.099604035453073, "lon": 40.94346665438868, "alt_km": 616.2708808045645, "timestamp": "2025-12-17T15:50:10.176487+00:00", "meta": {"OBJECT_NAME": "COSMOS 2251 DEB", "OBJECT_ID": "1993-036VL", "EPOCH": "2025-12-17T04:32:53.815200", "MEAN_MOTION": 14.7065411, "ECCENTRICITY": 0.00670068, "INCLINATION": 74.0694, "RA_OF_ASC_NODE": 34.5137, "ARG_OF_PERICENTER": 54.0882, "MEAN_ANOMALY": 2.4474, "EPHEMERIS_TYPE": 0, "CLASSIFICATION_TYPE": "U", "NORAD_CAT_ID": 34574, "ELEMENT_SET_NO": 999, "REV_AT_EPOCH": 88844, "BSTAR": 0.00068312212, "MEAN_MOTION_DOT": 4.275e-05, "MEAN_MOTION_DDOT": 0}, "tle": {"line1": "1 34574U 93036VL  25351.18951175  .00004275  00000+0  68312-3 0  9997", "line2": "2 34574  74.0694  34.5137 0067006  54.0882   2.4474 14.70654110888446"}}, "geometry": {"type": "Point", "coordinates": [40.94346665438868, 24.099604035453073]}}, {"type": "Feature", "properties": {"norad_id": 34576, "name": "COSMOS 2251 DEB", "group": "cosmos-2251-debris", "lat": 73.63197973024226, "lon": -154.02229622940135, "alt_km": 706.2914720268263, "timestamp": "2025-12-17T15:50:10.176497+00:00", "meta": {"OBJECT_NAME": "COSMOS 2251 DEB", "OBJECT_ID": "1993-036VN", "EPOCH": "2025-12-17T03:02:32.195328", "MEAN_MOTION": 14.55456435, "ECCENTRICITY": 0.00082117, "INCLINATION": 74.0336, "RA_OF_ASC_NODE": 129.8851, "ARG_OF_PERICENTER": 266.657, "MEAN_ANOMALY": 267.744, "EPHEMERIS_TYPE": 0, "CLASSIFICATION_TYPE": "U", "NORAD_CAT_ID": 34576, "ELEMENT_SET_NO": 999, "REV_AT_EPOCH": 88530, "BSTAR": 0.00066742109, "MEAN_MOTION_DOT": 2.876e-05, "MEAN_MOTION_DDOT": 0}, "tle": {"line1": "1 34576U 93036VN  25351.12676152  .00002876  00000+0  66742-3 0  9992", "line2": "2 34576  74.0336 129.8851 0008211 266.6570 267.7440 14.55456435885304"}}, "geometry": {"type": "Point", "coordinates": [-154.02229622940135, 73.63197973024226]}}, {"type": "Feature", "properties": {"norad_id": 34579, "name": "COSMOS 2251 DEB", "group": "cosmos-2251-debris", "lat": 51.7629608725731, "lon": 13.455253874135293, "alt_km": 753.9130689277035, "timestamp": "2025-12-17T15:50:10.176507+00:00", "meta": {"OBJECT_NAME": "COSMOS 2251 DEB", "OBJECT_ID": "1993-036VR", "EPOCH": "2025-12-17T00:53:42.797760", "MEAN_MOTION": 14.4532044, "ECCENTRICITY": 0.00275494, "INCLINATION": 74.0519, "RA_OF_ASC_NODE": 215.8921, "ARG_OF_PERICENTER": 283.8803, "MEAN_ANOMALY": 203.5477, "EPHEMERIS_TYPE": 0, "CLASSIFICATION_TYPE": "U", "NORAD_CAT_ID": 34579, "ELEMENT_SET_NO": 999, "REV_AT_EPOCH": 88236, "BSTAR": 0.00034104746, "MEAN_MOTION_DOT": 1.176e-05, "MEAN_MOTION_DDOT": 0}, "tle": {"line1": "1 34579U 93036VR  25351.03730090  .00001176  00000+0  34105-3 0  9997", "line2": "2 34579  74.0519 215.8921 0027549 283.8803 203.5477 14.45320440882365"}}, "geometry": {"type": "Point", "coordinates": [13.455253874135293, 51.7629608725731]}}, {"type": "Feature", "properties": {"norad_id": 34582, "name": "COSMOS 2251 DEB", "group": "cosmos-2251-debris", "lat": 27.35759440803503, "lon": -88.24658719031459, "alt_km": 713.0537981219668, "timestamp": "2025-12-17T15:50:10.176518+00:00", "meta": {"OBJECT_NAME": "COSMOS 2251 DEB", "OBJECT_ID": "1993-036VU", "EPOCH": "2025-12-17T04:03:40.640832", "MEAN_MOTION": 14.43348915, "ECCENTRICITY": 0.00481298, "INCLINATION": 74.0201, "RA_OF_ASC_NODE": 264.139, "ARG_OF_PERICENTER": 13.3261, "MEAN_ANOMALY": 346.9154, "EPHEMERIS_TYPE": 0, "CLASSIFICATION_TYPE": "U", "NORAD_CAT_ID": 34582, "ELEMENT_SET_NO": 999, "REV_AT_EPOCH": 88011, "BSTAR": 0.00062806517, "MEAN_MOTION_DOT": 2.121e-05, "MEAN_MOTION_DDOT": 0}, "tle": {"line1": "1 34582U 93036VU  25351.16922038  .00002121  00000+0  62807-3 0  9991", "line2": "2 34582  74.0201 264.1390 0048129  13.3261 346.9154 14.43348915880115"}}, "geometry": {"type": "Point", "coordinates": [-88.24658719031459, 27.35759440803503]}}, {"type": "Feature", "properties": {"norad_id": 34588, "name": "COSMOS 2251 DEB", "group": "cosmos-2251-debris", "lat": 56.663881005306344, "lon": -75.0772828599466, "alt_km": 750.483164600586, "timestamp": "2025-12-17T15:50:10.176529+00:00", "meta": {"OBJECT_NAME": "COSMOS 2251 DEB", "OBJECT_ID": "1993-036WA", "EPOCH": "2025-12-17T04:27:25.649856", "MEAN_MOTION": 14.42035169, "ECCENTRICITY": 0.00192448, "INCLINATION": 74.043, "RA_OF_ASC_NODE": 260.0171, "ARG_OF_PERICENTER": 312.1937, "MEAN_ANOMALY": 167.6407, "EPHEMERIS_TYPE": 0, "CLASSIFICATION_TYPE": "U", "NORAD_CAT_ID": 34588, "ELEMENT_SET_NO": 999, "REV_AT_EPOCH": 88014, "BSTAR": 0.00037773673, "MEAN_MOTION_DOT": 1.216e-05, "MEAN_MOTION_DDOT": 0}, "tle": {"line1": "1 34588U 93036WA  25351.18571354  .00001216  00000+0  37774-3 0  9999", "line2": "2 34588  74.0430 260.0171 0019244 312.1937 167.6407 14.42035169880148"}}, "geometry": {"type": "Point", "coordinates": [-75.0772828599466, 56.663881005306344]}}, {"type": "Feature", "properties": {"norad_id": 34589, "name": "COSMOS 2251 DEB", "group": "cosmos-2251-debris", "lat": -6.562759701370122, "lon": 45.748009837453004, "alt_km": 761.5743660542748, "timestamp": "2025-12-17T15:50:10.176539+00:00", "meta": {"OBJECT_NAME": "COSMOS 2251 DEB", "OBJECT_ID": "1993-036WB", "EPOCH": "2025-12-17T03:53:05.853120", "MEAN_MOTION": 13.86056488, "ECCENTRICITY": 0.02520625, "INCLINATION": 73.9259, "RA_OF_ASC_NODE": 48.497, "ARG_OF_PERICENTER": 350.9709, "MEAN_ANOMALY": 38.3411, "EPHEMERIS_TYPE": 0, "CLASSIFICATION_TYPE": "U", "NORAD_CAT_ID": 34589, "ELEMENT_SET_NO": 999, "REV_AT_EPOCH": 84773, "BSTAR": 0.00026113807, "MEAN_MOTION_DOT": 3.61e-06, "MEAN_MOTION_DDOT": 0}, "tle": {"line1": "1 34589U 93036WB  25351.16187330  .00000361  00000+0  26114-3 0  9991", "line2": "2 34589  73.9259  48.4970 0252062 350.9709  38.3411 13.86056488847736"}}, "geometry": {"type": "Point", "coordinates": [45.748009837453004, -6.562759701370122]}}, {"type": "Feature", "properties": {"norad_id": 34590, "name": "COSMOS 2251 DEB", "group": "cosmos-2251-debris", "lat": 60.535597187327504, "lon": 102.81781559774127, "alt_km": 663.4646585825221, "timestamp": "2025-12-17T15:50:10.176550+00:00", "meta": {"OBJECT_NAME": "COSMOS 2251 DEB", "OBJECT_ID": "1993-036WC", "EPOCH": "2025-12-17T03:49:48.319392", "MEAN_MOTION": 14.54831057, "ECCENTRICITY": 0.00679827, "INCLINATION": 74.044, "RA_OF_ASC_NODE": 314.1893, "ARG_OF_PERICENTER": 82.4697, "MEAN_ANOMALY": 293.2035, "EPHEMERIS_TYPE": 0, "CLASSIFICATION_TYPE": "U", "NORAD_CAT_ID": 34590, "ELEMENT_SET_NO": 999, "REV_AT_EPOCH": 89185, "BSTAR": 0.00011939176, "MEAN_MOTION_DOT": 4.99e-06, "MEAN_MOTION_DDOT": 0}, "tle": {"line1": "1 34590U 93036WC  25351.15958703  .00000499  00000+0  11939-3 0  9993", "line2": "2 34590  74.0440 314.1893 0067982  82.4697 293.2035 14.54831057891852"}}, "geometry": {"type": "Point", "coordinates": [102.81781559774127, 60.535597187327504]}}, {"type": "Feature", "properties": {"norad_id": 34609, "name": "COSMOS 2251 DEB", "group": "cosmos-2251-debris", "lat": 20.26341703270565, "lon": 103.91788574259326, "alt_km": 773.0639414575526, "timestamp": "2025-12-17T15:50:10.176560+00:00", "meta": {"OBJECT_NAME": "COSMOS 2251 DEB", "OBJECT_ID": "1993-036WE", "EPOCH": "2025-12-17T07:26:23.697600", "MEAN_MOTION": 14.21809991, "ECCENTRICITY": 0.0145358, "INCLINATION": 73.7333, "RA_OF_ASC_NODE": 98.3689, "ARG_OF_PERICENTER": 317.1482, "MEAN_ANOMALY": 72.6187, "EPHEMERIS_TYPE": 0, "CLASSIFICATION_TYPE": "U", "NORAD_CAT_ID": 34609, "ELEMENT_SET_NO": 999, "REV_AT_EPOCH": 86697, "BSTAR": 0.00051138654, "MEAN_MOTION_DOT": 1.225e-05, "MEAN_MOTION_DDOT": 0}, "tle": {"line1": "1 34609U 93036WE  25351.30999650  .00001225  00000+0  51139-3 0  9991", "line2": "2 34609  73.7333  98.3689 0145358 317.1482  72.6187 14.21809991866976"}}, "geometry": {"type": "Point", "coordinates": [103.91788574259326, 20.26341703270565]}}]}